{"type": "FeatureCollection", "features": [{"type": "Feature", "properties": {"norad_id": 24946, "name": "IRIDIUM 33", "group": "iridium-33-debris", "lat": 86.0619819481997, "lon": 176.2126327362671, "alt_km": 765.1281164911406, "timestamp": "2025-12-25T11:37:44.823827+00:00", "meta": {"OBJECT_NAME": "IRIDIUM 33", "OBJECT_ID": "1997-051C", "EPOCH": "2025-12-25T04:30:35.603712", "MEAN_MOTION": 14.35045763, "ECCENTRICITY": 0.00085, "INCLINATION": 86.3857, "RA_OF_ASC_NODE": 62.9959, "ARG_OF_PERICENTER": 160.2017, "MEAN_ANOMALY": 199.9511, "EPHEMERIS_TYPE": 0, "CLASSIFICATION_TYPE": "U", "NORAD_CAT_ID": 24946, "ELEMENT_SET_NO": 999, "REV_AT_EPOCH": 48013, "BSTAR": 0.00011431, "MEAN_MOTION_DOT": 3.45e-06, "MEAN_MOTION_DDOT": 0}, "tle": {"line1": "1 24946U 97051C   25359.18791208  .00000345  00000+0  11431-3 0  9991", "line2": "2 24946  86.3857  62.9959 0008500 160.2017 199.9511 14.35045763480133"}}, "geometry": {"type": "Point", "coordinates": [176.2126327362671, 86.0619819481997]}}, {"type": "Feature", "properties": {"norad_id": 33773, "name": "IRIDIUM 33 DEB", "group": "iridium-33-debris", "lat": 65.22852852648472, "lon": 63.029831565447694, "alt_km": 734.6064760302888, "timestamp": "2025-12-25T11:37:44.823872+00:00", "meta": {"OBJECT_NAME": "IRIDIUM 33 DEB", "OBJECT_ID": "1997-051L", "EPOCH": "2025-12-25T03:00:26.345088", "MEAN_MOTION": 14.43282119, "ECCENTRICITY": 0.0013274, "INCLINATION": 86.3998, "RA_OF_ASC_NODE": 55.3405, "ARG_OF_PERICENTER": 110.8698, "MEAN_ANOMALY": 249.3926, "EPHEMERIS_TYPE": 0, "CLASSIFICATION_TYPE": "U", "NORAD_CAT_ID": 33773, "ELEMENT_SET_NO": 999, "REV_AT_EPOCH": 88526, "BSTAR": 0.00029113, "MEAN_MOTION_DOT": 1.001e-05, "MEAN_MOTION_DDOT": 0}, "tle": {"line1": "1 33773U 97051L   25359.12530492  .00001001  00000+0  29113-3 0  9995", "line2": "2 33773  86.3998  55.3405 0013274 110.8698 249.3926 14.43282119885269"}}, "geometry": {"type": "Point", "coordinates": [63.029831565447694, 65.22852852648472]}}, {"type": "Feature", "properties": {"norad_id": 33775, "name": "IRIDIUM 33 DEB", "group": "iridium-33-debris", "lat": 66.76539638920737, "lon": 52.6331100235483, "alt_km": 740.0498541694769, "timestamp": "2025-12-25T11:37:44.823889+00:00", "meta": {"OBJECT_NAME": "IRIDIUM 33 DEB", "OBJECT_ID": "1997-051N", "EPOCH": "2025-12-24T21:08:33.647136", "MEAN_MOTION": 14.41493494, "ECCENTRICITY": 0.0015301, "INCLINATION": 86.3624, "RA_OF_ASC_NODE": 44.3695, "ARG_OF_PERICENTER": 118.5758, "MEAN_ANOMALY": 58.3115, "EPHEMERIS_TYPE": 0, "CLASSIFICATION_TYPE": "U", "NORAD_CAT_ID": 33775, "ELEMENT_SET_NO": 999, "REV_AT_EPOCH": 88315, "BSTAR": 0.00031635, "MEAN_MOTION_DOT": 1.048e-05, "MEAN_MOTION_DDOT": 0}, "tle": {"line1": "1 33775U 97051N   25358.88094499  .00001048  00000+0  31635-3 0  9994", "line2": "2 33775  86.3624  44.3695 0015301 118.5758  58.3115 14.41493494883153"}}, "geometry": {"type": "Point", "coordinates": [52.6331100235483, 66.76539638920737]}}, {"type": "Feature", "properties": {"norad_id": 33776, "name": "IRIDIUM 33 DEB", "group": "iridium-33-debris", "lat": 31.199665844041323, "lon": -106.75946672929307, "alt_km": 751.404037007338, "timestamp": "2025-12-25T11:37:44.823903+00:00", "meta": {"OBJECT_NAME": "IRIDIUM 33 DEB", "OBJECT_ID": "1997-051P", "EPOCH": "2025-12-25T00:03:18.980064", "MEAN_MOTION": 14.38255596, "ECCENTRICITY": 0.0015705, "INCLINATION": 86.4031, "RA_OF_ASC_NODE": 75.6262, "ARG_OF_PERICENTER": 151.5247, "MEAN_ANOMALY": 21.7754, "EPHEMERIS_TYPE": 0, "CLASSIFICATION_TYPE": "U", "NORAD_CAT_ID": 33776, "ELEMENT_SET_NO": 999, "REV_AT_EPOCH": 88258, "BSTAR": 0.00026549, "MEAN_MOTION_DOT": 8.27e-06, "MEAN_MOTION_DDOT": 0}, "tle": {"line1": "1 33776U 97051P   25359.00230301  .00000827  00000+0  26549-3 0  9996", "line2": "2 33776  86.4031  75.6262 0015705 151.5247  21.7754 14.38255596882586"}}, "geometry": {"type": "Point", "coordinates": [-106.75946672929307, 31.199665844041323]}}, {"type": "Feature", "properties": {"norad_id": 33777, "name": "IRIDIUM 33 DEB", "group": "iridium-33-debris", "lat": 13.869898697343094, "lon": 30.554352750297138, "alt_km": 712.6778055026352, "timestamp": "2025-12-25T11:37:44.823915+00:00", "meta": {"OBJECT_NAME": "IRIDIUM 33 DEB", "OBJECT_ID": "1997-051Q", "EPOCH": "2025-12-25T03:18:59.715360", "MEAN_MOTION": 14.55696956, "ECCENTRICITY": 0.0006317, "INCLINATION": 86.3773, "RA_OF_ASC_NODE": 29.8087, "ARG_OF_PERICENTER": 197.114, "MEAN_ANOMALY": 162.9856, "EPHEMERIS_TYPE": 0, "CLASSIFICATION_TYPE": "U", "NORAD_CAT_ID": 33777, "ELEMENT_SET_NO": 999, "REV_AT_EPOCH": 88714, "BSTAR": 0.00084427, "MEAN_MOTION_DOT": 3.71e-05, "MEAN_MOTION_DDOT": 0}, "tle": {"line1": "1 33777U 97051Q   25359.13819115  .00003710  00000+0  84427-3 0  9990", "line2": "2 33777  86.3773  29.8087 0006317 197.1140 162.9856 14.55696956887148"}}, "geometry": {"type": "Point", "coordinates": [30.554352750297138, 13.869898697343094]}}, {"type": "Feature", "properties": {"norad_id": 33850, "name": "IRIDIUM 33 DEB", "group": "iridium-33-debris", "lat": 78.53026247739983, "lon": 43.08327320390963, "alt_km": 737.2545862483121, "timestamp": "2025-12-25T11:37:44.823928+00:00", "meta": {"OBJECT_NAME": "IRIDIUM 33 DEB", "OBJECT_ID": "1997-051T", "EPOCH": "2025-12-25T03:13:46.982784", "MEAN_MOTION": 14.42176919, "ECCENTRICITY": 0.0013278, "INCLINATION": 86.3408, "RA_OF_ASC_NODE": 24.8493, "ARG_OF_PERICENTER": 124.2339, "MEAN_ANOMALY": 299.1573, "EPHEMERIS_TYPE": 0, "CLASSIFICATION_TYPE": "U", "NORAD_CAT_ID": 33850, "ELEMENT_SET_NO": 999, "REV_AT_EPOCH": 88331, "BSTAR": 0.00041553, "MEAN_MOTION_DOT": 1.388e-05, "MEAN_MOTION_DDOT": 0}, "tle": {"line1": "1 33850U 97051T   25359.13457156  .00001388  00000+0  41553-3 0  9997", "line2": "2 33850  86.3408  24.8493 0013278 124.2339 299.1573 14.42176919883318"}}, "geometry": {"type": "Point", "coordinates": [43.08327320390963, 78.53026247739983]}}, {"type": "Feature", "properties": {"norad_id": 33853, "name": "IRIDIUM 33 DEB", "group": "iridium-33-debris", "lat": -67.96335331866369, "lon": -25.732375526549905, "alt_km": 914.7743623116139, "timestamp": "2025-12-25T11:37:44.823941+00:00", "meta": {"OBJECT_NAME": "IRIDIUM 33 DEB", "OBJECT_ID": "1997-051W", "EPOCH": "2025-12-24T22:19:16.041792", "MEAN_MOTION": 13.99120379, "ECCENTRICITY": 0.0207734, "INCLINATION": 86.0001, "RA_OF_ASC_NODE": 344.4648, "ARG_OF_PERICENTER": 198.227, "MEAN_ANOMALY": 179.9108, "EPHEMERIS_TYPE": 0, "CLASSIFICATION_TYPE": "U", "NORAD_CAT_ID": 33853, "ELEMENT_SET_NO": 999, "REV_AT_EPOCH": 85516, "BSTAR": 0.0011909, "MEAN_MOTION_DOT": 2.092e-05, "MEAN_MOTION_DDOT": 0}, "tle": {"line1": "1 33853U 97051W   25358.93004678  .00002092  00000+0  11909-2 0  9998", "line2": "2 33853  86.0001 344.4648 0207734 198.2270 179.9108 13.99120379855168"}}, "geometry": {"type": "Point", "coordinates": [-25.732375526549905, -67.96335331866369]}}, {"type": "Feature", "properties": {"norad_id": 33860, "name": "IRIDIUM 33 DEB", "group": "iridium-33-debris", "lat": 86.13492216051112, "lon": 132.13270725104923, "alt_km": 664.9733348996651, "timestamp": "2025-12-25T11:37:44.823954+00:00", "meta": {"OBJECT_NAME": "IRIDIUM 33 DEB", "OBJECT_ID": "1997-051AD", "EPOCH": "2025-12-25T01:40:13.916064", "MEAN_MOTION": 14.67512307, "ECCENTRICITY": 0.000606, "INCLINATION": 86.3823, "RA_OF_ASC_NODE": 21.779, "ARG_OF_PERICENTER": 309.0617, "MEAN_ANOMALY": 111.5217, "EPHEMERIS_TYPE": 0, "CLASSIFICATION_TYPE": "U", "NORAD_CAT_ID": 33860, "ELEMENT_SET_NO": 999, "REV_AT_EPOCH": 88903, "BSTAR": 0.0011963, "MEAN_MOTION_DOT": 6.804e-05, "MEAN_MOTION_DDOT": 0}, "tle": {"line1": "1 33860U 97051AD  25359.06960551  .00006804  00000+0  11963-2 0  9997", "line2": "2 33860  86.3823  21.7790 0006060 309.0617 111.5217 14.67512307889038"}}, "geometry": {"type": "Point", "coordinates": [132.13270725104923, 86.13492216051112]}}, {"type": "Feature", "properties": {"norad_id": 33862, "name": "IRIDIUM 33 DEB", "group": "iridium-33-debris", "lat": -44.05144016492229, "lon": -144.60719925767296, "alt_km": 703.8055393467084, "timestamp": "2025-12-25T11:37:44.823966+00:00", "meta": {"OBJECT_NAME": "IRIDIUM 33 DEB", "OBJECT_ID": "1997-051AF", "EPOCH": "2025-12-25T02:40:57.384192", "MEAN_MOTION": 14.69670864, "ECCENTRICITY": 0.0052097, "INCLINATION": 86.4081, "RA_OF_ASC_NODE": 32.0733, "ARG_OF_PERICENTER": 27.5778, "MEAN_ANOMALY": 25.6917, "EPHEMERIS_TYPE": 0, "CLASSIFICATION_TYPE": "U", "NORAD_CAT_ID": 33862, "ELEMENT_SET_NO": 999, "REV_AT_EPOCH": 89005, "BSTAR": 0.0015858, "MEAN_MOTION_DOT": 9.663e-05, "MEAN_MOTION_DDOT": 0}, "tle": {"line1": "1 33862U 97051AF  25359.11177528  .00009663  00000+0  15858-2 0  9992", "line2": "2 33862  86.4081  32.0733 0052097  27.5778  25.6917 14.69670864890051"}}, "geometry": {"type": "Point", "coordinates": [-144.60719925767296, -44.05144016492229]}}, {"type": "Feature", "properties": {"norad_id": 33866, "name": "IRIDIUM 33 DEB", "group": "iridium-33-debris", "lat": 59.52804073144302, "lon": 93.95846769430825, "alt_km": 761.1007982027286, "timestamp": "2025-12-25T11:37:44.823977+00:00", "meta": {"OBJECT_NAME": "IRIDIUM 33 DEB", "OBJECT_ID": "1997-051AK", "EPOCH": "2025-12-25T00:08:02.251968", "MEAN_MOTION": 14.25311588, "ECCENTRICITY": 0.0115269, "INCLINATION": 86.2996, "RA_OF_ASC_NODE": 87.8465, "ARG_OF_PERICENTER": 122.5126, "MEAN_ANOMALY": 2.3376, "EPHEMERIS_TYPE": 0, "CLASSIFICATION_TYPE": "U", "NORAD_CAT_ID": 33866, "ELEMENT_SET_NO": 999, "REV_AT_EPOCH": 86985, "BSTAR": 0.00058594, "MEAN_MOTION_DOT": 1.498e-05, "MEAN_MOTION_DDOT": 0}, "tle": {"line1": "1 33866U 97051AK  25359.00558162  .00001498  00000+0  58594-3 0  9994", "line2": "2 33866  86.2996  87.8465 0115269 122.5126   2.3376 14.25311588869854"}}, "geometry": {"type": "Point", "coordinates": [93.95846769430825, 59.52804073144302]}}]}